{"type": "FeatureCollection", "features": [ {"type": "Feature", "properties": {"norad_id": 65304, "name": "DRAGON CRS-33", "group": "stations", "lat": 49.917166809197504, "lon": -175.26347822074192, "alt_km": 412.3814254847375, "timestamp": "2025-12-26T08:37:53.326438+00:00", "meta": {"OBJECT_NAME": "DRAGON CRS-33", "OBJECT_ID": "2025-186A", "EPOCH": "2025-12-25T21:21:30.152448", "MEAN_MOTION": 15.49823805, "ECCENTRICITY": 0.00032345, "INCLINATION": 51.6319, "RA_OF_ASC_NODE": 77.3524, "ARG_OF_PERICENTER": 301.523, "MEAN_ANOMALY": 58.5443, "EPHEMERIS_TYPE": 0, "CLASSIFICATION_TYPE": "U", "NORAD_CAT_ID": 65304, "ELEMENT_SET_NO": 999, "REV_AT_EPOCH": 11, "BSTAR": 0.00025321218, "MEAN_MOTION_DOT": 0.00013933, "MEAN_MOTION_DDOT": 0}, "tle": {"line1": "1 65304U 25186A   25359.88993232  .00013933  00000+0  25321-3 0  9992", "line2": "2 65304  51.6319  77.3524 0003234 301.5230  58.5443 15.49823805   115"}}, "geometry": {"type": "Point", "coordinates": [-175.26347822074192, 49.917166809197504]}}, {"type": "Feature", "properties": {"norad_id": 65586, "name": "PROGRESS-MS 32", "group": "stations", "lat": 49.917166655297066, "lon": -175.2634773493577, "alt_km": 412.38142551411147, "timestamp": "2025-12-26T08:37:53.326447+00:00", "meta": {"OBJECT_NAME": "PROGRESS-MS 32", "OBJECT_ID": "2025-204A", "EPOCH": "2025-12-25T21:21:30.152448", "MEAN_MOTION": 15.49823805, "ECCENTRICITY": 0.00032345, "INCLINATION": 51.6319, "RA_OF_ASC_NODE": 77.3524, "ARG_OF_PERICENTER": 301.523, "MEAN_ANOMALY": 58.5443, "EPHEMERIS_TYPE": 0, "CLASSIFICATION_TYPE": "U", "NORAD_CAT_ID": 65586, "ELEMENT_SET_NO": 999, "REV_AT_EPOCH": 27, "BSTAR": 0.00025321218, "MEAN_MOTION_DOT": 0.00013933, "MEAN_MOTION_DDOT": 0}, "tle": {"line1": "1 65586U 25204A   25359.88993232  .00013933  00000+0  25321-3 0  9995", "line2": "2 65586  51.6319  77.3524 0003234 301.5230  58.5443 15.49823805   274"}}, "geometry": {"type": "Point", "coordinates": [-175.2634773493577, 49.917166655297066]}}, {"type": "Feature", "properties": {"norad_id": 65616, "name": "CYGNUS NG-23", "group": "stations", "lat": 49.9171664842965, "lon": -175.26347638115269, "alt_km": 412.3814255467496, "timestamp": "2025-12-26T08:37:53.326457+00:00", "meta": {"OBJECT_NAME": "CYGNUS NG-23", "OBJECT_ID": "2025-208A", "EPOCH": "2025-12-25T21:21:30.152448", "MEAN_MOTION": 15.49823805, "ECCENTRICITY": 0.00032345, "INCLINATION": 51.6319, "RA_OF_ASC_NODE": 77.3524, "ARG_OF_PERICENTER": 301.523, "MEAN_ANOMALY": 58.5443, "EPHEMERIS_TYPE": 0, "CLASSIFICATION_TYPE": "U", "NORAD_CAT_ID": 65616, "ELEMENT_SET_NO": 999, "REV_AT_EPOCH": 22, "BSTAR": 0.00025321218, "MEAN_MOTION_DOT": 0.00013933, "MEAN_MOTION_DDOT": 0}, "tle": {"line1": "1 65616U 25208A   25359.88993232  .00013933  00000+0  25321-3 0  9993", "line2": "2 65616  51.6319  77.3524 0003234 301.5230  58.5443 15.49823805   223"}}, "geometry": {"type": "Point", "coordinates": [-175.26347638115269, 49.9171664842965]}}, {"type": "Feature", "properties": {"norad_id": 65729, "name": "DRAGONFLY", "group": "stations", "lat": -20.262832947250146, "lon": -97.21011163818837, "alt_km": 347.2560057640685, "timestamp": "2025-12-26T08:37:53.326467+00:00", "meta": {"OBJECT_NAME": "DRAGONFLY", "OBJECT_ID": "1998-067XH", "EPOCH": "2025-12-25T10:27:45.650592", "MEAN_MOTION": 15.76365427, "ECCENTRICITY": 0.0008108, "INCLINATION": 51.6246, "RA_OF_ASC_NODE": 70.5435, "ARG_OF_PERICENTER": 352.3473, "MEAN_ANOMALY": 7.7402, "EPHEMERIS_TYPE": 0, "CLASSIFICATION_TYPE": "U", "NORAD_CAT_ID": 65729, "ELEMENT_SET_NO": 999, "REV_AT_EPOCH": 1516, "BSTAR": 0.0012462, "MEAN_MOTION_DOT": 0.00205682, "MEAN_MOTION_DDOT": 0}, "tle": {"line1": "1 65729U 98067XH  25359.43594503  .00205682  00000+0  12462-2 0  9995", "line2": "2 65729  51.6246  70.5435 0008108 352.3473   7.7402 15.76365427 15162"}}, "geometry": {"type": "Point", "coordinates": [-97.21011163818837, -20.262832947250146]}}, {"type": "Feature", "properties": {"norad_id": 65731, "name": "1998-067XK", "group": "stations", "lat": -41.10556534381281, "lon": -68.26347117727695, "alt_km": 367.93377412975406, "timestamp": "2025-12-26T08:37:53.326478+00:00", "meta": {"OBJECT_NAME": "1998-067XK", "OBJECT_ID": "1998-067XK", "EPOCH": "2025-12-26T04:33:59.550912", "MEAN_MOTION": 15.68357422, "ECCENTRICITY": 0.0005032, "INCLINATION": 51.6285, "RA_OF_ASC_NODE": 68.8624, "ARG_OF_PERICENTER": 329.4529, "MEAN_ANOMALY": 30.6174, "EPHEMERIS_TYPE": 0, "CLASSIFICATION_TYPE": "U", "NORAD_CAT_ID": 65731, "ELEMENT_SET_NO": 999, "REV_AT_EPOCH": 1525, "BSTAR": 0.00086718, "MEAN_MOTION_DOT": 0.001002, "MEAN_MOTION_DDOT": 0}, "tle": {"line1": "1 65731U 98067XK  25360.19027258  .00100200  00000+0  86718-3 0  9997", "line2": "2 65731  51.6285  68.8624 0005032 329.4529  30.6174 15.68357422 15256"}}, "geometry": {"type": "Point", "coordinates": [-68.26347117727695, -41.10556534381281]}}, {"type": "Feature", "properties": {"norad_id": 65732, "name": "RSP-03", "group": "stations", "lat": 9.533323733778904, "lon": 74.59915632305747, "alt_km": 348.72144043509525, "timestamp": "2025-12-26T08:37:53.326488+00:00", "meta": {"OBJECT_NAME": "RSP-03", "OBJECT_ID": "1998-067XL", "EPOCH": "2025-12-26T02:28:39.715680", "MEAN_MOTION": 15.72119608, "ECCENTRICITY": 0.0006061, "INCLINATION": 51.6259, "RA_OF_ASC_NODE": 68.2655, "ARG_OF_PERICENTER": 336.3892, "MEAN_ANOMALY": 23.6827, "EPHEMERIS_TYPE": 0, "CLASSIFICATION_TYPE": "U", "NORAD_CAT_ID": 65732, "ELEMENT_SET_NO": 999, "REV_AT_EPOCH": 1526, "BSTAR": 0.0010365, "MEAN_MOTION_DOT": 0.00141034, "MEAN_MOTION_DDOT": 0}, "tle": {"line1": "1 65732U 98067XL  25360.10323745  .00141034  00000+0  10365-2 0  9993", "line2": "2 65732  51.6259  68.2655 0006061 336.3892  23.6827 15.72119608 15264"}}, "geometry": {"type": "Point", "coordinates": [74.59915632305747, 9.533323733778904]}}, {"type": "Feature", "properties": {"norad_id": 65733, "name": "GHS-01", "group": "stations", "lat": -43.7970106373402, "lon": 15.40306348338651, "alt_km": 328.4398820570732, "timestamp": "2025-12-26T08:37:53.326501+00:00", "meta": {"OBJECT_NAME": "GHS-01", "OBJECT_ID": "1998-067XM", "EPOCH": "2025-12-25T11:39:15.872832", "MEAN_MOTION": 15.80737686, "ECCENTRICITY": 0.0009282, "INCLINATION": 51.6282, "RA_OF_ASC_NODE": 69.3856, "ARG_OF_PERICENTER": 357.4612, "MEAN_ANOMALY": 2.6342, "EPHEMERIS_TYPE": 0, "CLASSIFICATION_TYPE": "U", "NORAD_CAT_ID": 65733, "ELEMENT_SET_NO": 999, "REV_AT_EPOCH": 1519, "BSTAR": 0.0014102, "MEAN_MOTION_DOT": 0.0028642, "MEAN_MOTION_DDOT": 0}, "tle": {"line1": "1 65733U 98067XM  25359.48560038  .00286420  00000+0  14102-2 0  9993", "line2": "2 65733  51.6282  69.3856 0009282 357.4612   2.6342 15.80737686 15190"}}, "geometry": {"type": "Point", "coordinates": [15.40306348338651, -43.7970106373402]}}, {"type": "Feature", "properties": {"norad_id": 65941, "name": "YOTSUBA-KULOVER", "group": "stations", "lat": 23.150389937034166, "lon": 91.23225568940781, "alt_km": 379.7602307644138, "timestamp": "2025-12-26T08:37:53.326512+00:00", "meta": {"OBJECT_NAME": "YOTSUBA-KULOVER", "OBJECT_ID": "1998-067XN", "EPOCH": "2025-12-25T07:55:23.883456", "MEAN_MOTION": 15.61141246, "ECCENTRICITY": 0.00024963, "INCLINATION": 51.6289, "RA_OF_ASC_NODE": 76.6197, "ARG_OF_PERICENTER": 359.01, "MEAN_ANOMALY": 1.0889, "EPHEMERIS_TYPE": 0, "CLASSIFICATION_TYPE": "U", "NORAD_CAT_ID": 65941, "ELEMENT_SET_NO": 999, "REV_AT_EPOCH": 1182, "BSTAR": 0.00081019067, "MEAN_MOTION_DOT": 0.00069861, "MEAN_MOTION_DDOT": 0}, "tle": {"line1": "1 65941U 98067XN  25359.33013754  .00069861  00000+0  81019-3 0  9996", "line2": "2 65941  51.6289  76.6197 0002496 359.0100   1.0889 15.61141246 11822"}}, "geometry": {"type": "Point", "coordinates": [91.23225568940781, 23.150389937034166]}}, {"type": "Feature", "properties": {"norad_id": 65942, "name": "BOTAN", "group": "stations", "lat": -9.422949473928988, "lon": -102.10358558588383, "alt_km": 374.91164145535095, "timestamp": "2025-12-26T08:37:53.326537+00:00", "meta": {"OBJECT_NAME": "BOTAN", "OBJECT_ID": "1998-067XP", "EPOCH": "2025-12-25T11:54:02.710944", "MEAN_MOTION": 15.65573117, "ECCENTRICITY": 0.00034448, "INCLINATION": 51.6278, "RA_OF_ASC_NODE": 74.724, "ARG_OF_PERICENTER": 339.5705, "MEAN_ANOMALY": 20.5152, "EPHEMERIS_TYPE": 0, "CLASSIFICATION_TYPE": "U", "NORAD_CAT_ID": 65942, "ELEMENT_SET_NO": 999, "REV_AT_EPOCH": 1186, "BSTAR": 0.0011099214, "MEAN_MOTION_DOT": 0.0011485, "MEAN_MOTION_DDOT": 0}, "tle": {"line1": "1 65942U 98067XP  25359.49586471  .00114850  00000+0  11099-2 0  9994", "line2": "2 65942  51.6278  74.7240 0003444 339.5705  20.5152 15.65573117 11860"}}, "geometry": {"type": "Point", "coordinates": [-102.10358558588383, -9.422949473928988]}}, {"type": "Feature", "properties": {"norad_id": 65943, "name": "E-KAGAKU-1", "group": "stations", "lat": 22.804481946868034, "lon": 90.89508940826973, "alt_km": 380.7587543098407, "timestamp": "2025-12-26T08:37:53.326553+00:00", "meta": {"OBJECT_NAME": "E-KAGAKU-1", "OBJECT_ID": "1998-067XQ", "EPOCH": "2025-12-25T10:59:52.984032", "MEAN_MOTION": 15.61171734, "ECCENTRICITY": 0.00014574, "INCLINATION": 51.631, "RA_OF_ASC_NODE": 75.9814, "ARG_OF_PERICENTER": 327.9549, "MEAN_ANOMALY": 32.1355, "EPHEMERIS_TYPE": 0, "CLASSIFICATION_TYPE": "U", "NORAD_CAT_ID": 65943, "ELEMENT_SET_NO": 999, "REV_AT_EPOCH": 1184, "BSTAR": 0.00081459816, "MEAN_MOTION_DOT": 0.00070327, "MEAN_MOTION_DDOT": 0}, "tle": {"line1": "1 65943U 98067XQ  25359.45825213  .00070327  00000+0  81460-3 0  9991", "line2": "2 65943  51.6310  75.9814 0001457 327.9549  32.1355 15.61171734 11844"}}, "geometry": {"type": "Point", "coordinates": [90.89508940826973, 22.804481946868034]}}]}